NORAD_CAT_ID,OBJECT_NAME,OBJECT_TYPE,EPOCH,MEAN_MOTION,ECCENTRICITY,INCLINATION,RA_OF_ASC_NODE,ARG_OF_PERICENTER,MEAN_ANOMALY,BSTAR,MEAN_MOTION_DOT,MEAN_MOTION_DDOT,TLE_LINE0,TLE_LINE1,TLE_LINE2,SEMIMAJOR_AXIS,PERIOD,APOGEE,PERIGEE,DECAYED
52587.0,STARLINK-3867,PAYLOAD,2023-08-27 14:48:18,15.0884734,0.0001326,53.2169,311.9361,97.555,262.5593,8.4303e-05,1.054e-05,0.0,0 STARLINK-3867,1 52587U 22051BD  23239.61687679  .00001054  00000-0  84303-4 0  9998,2 52587  53.2169 311.9361 0001326  97.5550 262.5593 15.08847340 72003,6917.858,95.437,540.64,538.806,0.0
52587.0,STARLINK-3867,PAYLOAD,2023-08-28 03:31:23,15.08837462,0.0001549,53.2159,309.5527,144.0749,216.0348,-3.0219e-05,-7.69e-06,0.0,0 STARLINK-3867,1 52587U 22051BD  23240.14680490 -.00000769  00000-0 -30219-4 0  9993,2 52587  53.2159 309.5527 0001549 144.0749 216.0348 15.08837462 72088,6917.888,95.438,540.825,538.682,0.0
52587.0,STARLINK-3867,PAYLOAD,2023-08-28 21:00:38,15.08837473,0.0001395,53.217,306.2873,88.1582,271.957,1.7148e-05,-1.5e-07,0.0,0 STARLINK-3867,1 52587U 22051BD  23240.87544852 -.00000015  00000-0  17148-4 0  9993,2 52587  53.2170 306.2873 0001395  88.1582 271.9570 15.08837473 72125,6917.888,95.438,540.718,538.788,0.0
52587.0,STARLINK-3867,PAYLOAD,2023-08-29 09:43:43,15.08840547,0.0001375,53.2168,303.9084,90.2138,269.9012,1.7528e-05,-9e-08,0.0,0 STARLINK-3867,1 52587U 22051BD  23241.40536745 -.00000009  00000-0  17528-4 0  9990,2 52587  53.2168 303.9084 0001375  90.2138 269.9012 15.08840547 72279,6917.879,95.438,540.695,538.793,0.0
52587.0,STARLINK-3867,PAYLOAD,2023-08-29 11:19:06,15.08841623,0.0001405,53.217,303.6111,93.2764,266.8389,3.0149e-05,1.92e-06,0.0,0 STARLINK-3867,1 52587U 22051BD  23241.47160647  .00000192  00000-0  30149-4 0  9997,2 52587  53.2170 303.6111 0001405  93.2764 266.8389 15.08841623 72215,6917.875,95.437,540.712,538.768,0.0
52587.0,STARLINK-3867,PAYLOAD,2023-08-30 04:48:17,15.08888756,0.0004513,53.2169,300.3402,115.1907,244.9553,0.00050215,7.724e-05,0.0,0 STARLINK-3867,1 52587U 22051BD  23242.20020275  .00007724  00000-0  50215-3 0  9994,2 52587  53.2169 300.3402 0004513 115.1907 244.9553 15.08888756 72393,6917.731,95.434,542.718,536.474,0.0
52587.0,STARLINK-3867,PAYLOAD,2023-08-30 09:34:15,15.09029578,0.0001573,53.2172,299.4474,93.2778,266.8395,0.0016588,0.00026348,0.0,0 STARLINK-3867,1 52587U 22051BD  23242.39878975  .00026348  00000-0  16588-2 0  9999,2 52587  53.2172 299.4474 0001573  93.2778 266.8395 15.09029578 72420,6917.301,95.426,540.254,538.078,0.0
52587.0,STARLINK-3867,PAYLOAD,2023-08-30 15:55:36,15.09142333,0.000194,53.217,298.2575,96.3522,263.7691,0.0024835,0.0003979,0.0,0 STARLINK-3867,1 52587U 22051BD  23242.66362189  .00039790  00000-0  24835-2 0  9993,2 52587  53.2170 298.2575 0001940  96.3522 263.7691 15.09142333 72460,6916.956,95.418,540.163,537.48,0.0
52587.0,STARLINK-3867,PAYLOAD,2023-08-30 20:41:35,15.09249986,0.000177,53.2169,297.3639,102.0646,258.0545,0.003233,0.0005213,0.0,0 STARLINK-3867,1 52587U 22051BD  23242.86221238  .00052130  00000-0  32330-2 0  9996,2 52587  53.2169 297.3639 0001770 102.0646 258.0545 15.09249986 72425,6916.628,95.412,539.717,537.268,0.0
52587.0,STARLINK-3867,PAYLOAD,2023-08-31 04:38:06,15.09469699,0.0002159,53.2172,295.8762,103.3569,256.7664,0.00472,0.00076972,0.0,0 STARLINK-3867,1 52587U 22051BD  23243.19313557  .00076972  00000-0  47200-2 0  9991,2 52587  53.2172 295.8762 0002159 103.3569 256.7664 15.09469699 72544,6915.956,95.398,539.314,536.328,0.0
52587.0,STARLINK-3867,PAYLOAD,2023-09-01 12:24:10,15.10020666,0.0001932,53.2163,289.9197,103.8287,256.292,0.0059103,0.00098224,0.0,0 STARLINK-3867,1 52587U 22051BD  23244.51678437  .00098224  00000-0  59103-2 0  9998,2 52587  53.2163 289.9197 0001932 103.8287 256.2920 15.10020666 72741,6914.274,95.363,537.475,534.803,0.0
52587.0,STARLINK-3867,PAYLOAD,2023-09-01 13:59:29,15.10015232,0.0001993,53.216,289.6215,94.5299,265.5921,0.0057319,0.00095196,0.0,0 STARLINK-3867,1 52587U 22051BD  23244.58298502  .00095196  00000-0  57319-2 0  9998,2 52587  53.2160 289.6215 0001993  94.5299 265.5921 15.10015232 72682,6914.291,95.363,537.534,534.777,0.0
52587.0,STARLINK-3867,PAYLOAD,2023-09-01 22:00:00,15.1045838,0.0001626,53.2138,288.1194,86.3225,289.1642,0.0019699,0.00032636,0.0,0 STARLINK-3867,1 52587U 22051BD  23244.91667824  .00032636  00000-0  19699-2 0  9991,2 52587  53.2138 288.1194 0001626  86.3225 289.1642 15.10458380 72809,6912.938,95.335,535.927,533.679,0.0
52587.0,STARLINK-3867,PAYLOAD,2023-09-02 14:00:01,15.10456204,0.0001598,53.2137,285.1203,77.3299,325.2891,0.0013914,0.00022933,0.0,0 STARLINK-3867,1 52587U 22051BD  23245.58334491  .00022933  00000-0  13914-2 0  9999,2 52587  53.2137 285.1203 0001598  77.3299 325.2891 15.10456204 72907,6912.945,95.335,535.914,533.705,0.0
52587.0,STARLINK-3867,PAYLOAD,2023-09-02 22:00:00,15.10455434,0.0001522,53.2139,283.618,85.0428,331.1379,0.0024677,0.00041002,0.0,0 STARLINK-3867,1 52587U 22051BD  23245.91667824  .00041002  00000-0  24677-2 0  9991,2 52587  53.2139 283.6180 0001522  85.0428 331.1379 15.10455434  5854,6912.947,95.335,535.864,533.76,0.0
52587.0,STARLINK-3867,PAYLOAD,2023-09-03 14:00:01,15.10451113,0.0001573,53.214,280.619,81.1834,2.1442,0.00094907,0.00015531,0.0,0 STARLINK-3867,1 52587U 22051BD  23246.58334491  .00015531  00000-0  94907-3 0  9998,2 52587  53.2140 280.6190 0001573  81.1834   2.1442 15.10451113 73051,6912.96,95.336,535.913,533.738,0.0
52587.0,STARLINK-3867,PAYLOAD,2023-09-04 14:00:01,15.10453891,0.0001592,53.2146,276.1179,82.0834,41.8596,0.0023679,0.00039321,0.0,0 STARLINK-3867,1 52587U 22051BD  23247.58334491  .00039321  00000-0  23679-2 0  9999,2 52587  53.2146 276.1179 0001592  82.0834  41.8596 15.10453891 73207,6912.952,95.336,535.917,533.716,0.0
52587.0,STARLINK-3867,PAYLOAD,2023-09-05 02:09:29,15.10475743,0.0001609,53.2165,273.8377,90.7378,269.3799,3.1478e-05,2.31e-06,0.0,0 STARLINK-3867,1 52587U 22051BD  23248.08992909  .00000231  00000-0  31478-4 0  9995,2 52587  53.2165 273.8377 0001609  90.7378 269.3799 15.10475743 73280,6912.885,95.334,535.862,533.638,0.0
52587.0,STARLINK-3867,PAYLOAD,2023-09-06 01:58:43,15.10471222,0.000159,53.2159,269.3703,93.3003,266.8172,0.00015299,2.255e-05,0.0,0 STARLINK-3867,1 52587U 22051BD  23249.08245238  .00002255  00000-0  15299-3 0  9992,2 52587  53.2159 269.3703 0001590  93.3003 266.8172 15.10471222 73363,6912.899,95.334,535.863,533.665,0.0
52587.0,STARLINK-3867,PAYLOAD,2023-09-06 17:51:33,15.10470453,0.0001708,53.2166,266.3902,89.8117,270.3071,7.3854e-05,9.37e-06,0.0,0 STARLINK-3867,1 52587U 22051BD  23249.74413947  .00000937  00000-0  73854-4 0  9996,2 52587  53.2166 266.3902 0001708  89.8117 270.3071 15.10470453 73538,6912.901,95.335,535.947,533.586,0.0
52587.0,STARLINK-3867,PAYLOAD,2023-09-07 08:09:05,15.1047743,0.00016,53.2163,263.7125,101.5023,258.615,3.8832e-05,3.54e-06,0.0,0 STARLINK-3867,1 52587U 22051BD  23250.33964940  .00000354  00000-0  38832-4 0  9997,2 52587  53.2163 263.7125 0001600 101.5023 258.6150 15.10477430 73621,6912.88,95.334,535.851,533.639,0.0
52587.0,STARLINK-3867,PAYLOAD,2023-09-08 00:01:54,15.10507222,0.0001527,53.2156,260.7331,105.1276,254.9886,-0.0003825,-6.66e-05,0.0,0 STARLINK-3867,1 52587U 22051BD  23251.00132867 -.00006660  00000-0 -38250-3 0  9998,2 52587  53.2156 260.7331 0001527 105.1276 254.9886 15.10507222 73726,6912.789,95.332,535.71,533.598,0.0
52587.0,STARLINK-3867,PAYLOAD,2023-09-08 07:58:22,15.10376211,0.0002086,53.2159,259.2438,95.4443,264.6787,0.0014207,0.00023372,0.0,0 STARLINK-3867,1 52587U 22051BD  23251.33220140  .00023372  00000-0  14207-2 0  9998,2 52587  53.2159 259.2438 0002086  95.4443 264.6787 15.10376211 73773,6913.189,95.34,536.496,533.612,0.0
52587.0,STARLINK-3867,PAYLOAD,2023-09-08 11:08:52,15.10494507,0.0001713,53.2157,258.6485,102.4173,257.7012,-0.00016714,-3.076e-05,0.0,0 STARLINK-3867,1 52587U 22051BD  23251.46450195 -.00003076  00000-0 -16714-3 0  9994,2 52587  53.2157 258.6485 0001713 102.4173 257.7012 15.10494507 73729,6912.828,95.333,535.877,533.509,0.0
52587.0,STARLINK-3867,PAYLOAD,2023-09-08 17:30:01,15.1047046,0.0001495,53.2159,257.4574,93.0764,267.04,6.6249e-05,8.1e-06,0.0,0 STARLINK-3867,1 52587U 22051BD  23251.72918548  .00000810  00000-0  66249-4 0  9994,2 52587  53.2159 257.4574 0001495  93.0764 267.0400 15.10470460 73834,6912.901,95.335,535.8,533.733,0.0
52587.0,STARLINK-3867,PAYLOAD,2023-09-09 12:33:24,15.10478847,0.0001516,53.2161,253.8834,92.4501,267.6666,7.0894e-05,8.88e-06,0.0,0 STARLINK-3867,1 52587U 22051BD  23252.52320020  .00000888  00000-0  70894-4 0  9991,2 52587  53.2161 253.8834 0001516  92.4501 267.6666 15.10478847 73884,6912.876,95.334,535.789,533.693,0.0
52587.0,STARLINK-3867,PAYLOAD,2023-09-10 01:15:39,15.10480707,0.0001567,53.2165,251.5001,88.6031,271.5142,7.4592e-05,9.49e-06,0.0,0 STARLINK-3867,1 52587U 22051BD  23253.05254533  .00000949  00000-0  74592-4 0  9992,2 52587  53.2165 251.5001 0001567  88.6031 271.5142 15.10480707 74039,6912.87,95.334,535.818,533.652,0.0
52587.0,STARLINK-3867,PAYLOAD,2023-09-10 07:36:47,15.10482496,0.0001486,53.216,250.3096,90.1038,270.0125,9.1337e-05,1.228e-05,0.0,0 STARLINK-3867,1 52587U 22051BD  23253.31721594  .00001228  00000-0  91337-4 0  9994,2 52587  53.2160 250.3096 0001486  90.1038 270.0125 15.10482496 74009,6912.864,95.334,535.757,533.702,0.0
52587.0,STARLINK-3867,PAYLOAD,2023-09-11 05:50:44,15.10479189,0.0001524,53.2165,246.1407,92.5992,267.5175,9.6077e-05,1.307e-05,0.0,0 STARLINK-3867,1 52587U 22051BD  23254.24357274  .00001307  00000-0  96077-4 0  9991,2 52587  53.2165 246.1407 0001524  92.5992 267.5175 15.10479189 74215,6912.875,95.334,535.793,533.686,0.0
52587.0,STARLINK-3867,PAYLOAD,2023-09-11 23:18:56,15.10402644,0.0001282,53.2162,242.8665,106.3139,253.7994,-0.00053731,-9.208e-05,0.0,0 STARLINK-3867,1 52587U 22051BD  23254.97149188 -.00009208  00000-0 -53731-3 0  9993,2 52587  53.2162 242.8665 0001282 106.3139 253.7994 15.10402644 74329,6913.108,95.339,535.859,534.087,0.0
